0 IRIDIUM 33 DEB
1 34772U 97051LR  13282.81975844  .00024315  00000-0  42320-2 0  8039
2 34772 086.3964 114.2597 0018287 313.5411 106.3219 14.67862413243142
0 IRIDIUM 33 DEB
1 34772U 97051LR  13283.55830381  .00041227  00000-0  72052-2 0  8055
2 34772 086.3975 113.9307 0018295 314.2604 045.7602 14.67873841243251
0 IRIDIUM 33 DEB
1 34772U 97051LR  13283.99635014  .00029973  00000-0  52079-2 0  8049
2 34772 086.3969 113.7408 0018285 309.5667 203.8034 14.67908497243318
0 IRIDIUM 33 DEB
1 34772U 97051LR  13285.81848616  .00022906  00000-0  39771-2 0  8061
2 34772 086.3964 112.9372 0018194 302.6384 113.7159 14.67976774243582
0 IRIDIUM 33 DEB
1 34772U 97051LR  13288.28487390  .00039031  00000-0  67457-2 0  8073
2 34772 086.3954 111.8487 0018049 293.8900 188.6388 14.68097112243946
0 IRIDIUM 33 DEB
1 34772U 97051LR  13289.49438808  .00034578  00000-0  59699-2 0  8088
2 34772 086.3951 111.3147 0018048 289.7870 101.2202 14.68167859244112
0 IRIDIUM 33 DEB
1 34772U 97051LR  13290.26212041  .00036248  00000-0  62524-2 0  8104
2 34772 086.3950 110.9756 0017985 286.8183 199.3873 14.68200857244237
0 IRIDIUM 33 DEB
1 34772U 97051LR  13291.97086124  .00027447  00000-0  47288-2 0  8116
2 34772 086.3950 110.2218 0018084 280.5676 231.6873 14.68298694244485
0 IRIDIUM 33 DEB
1 34772U 97051LR  13294.47467453  .00037536  00000-0  64404-2 0  8122
2 34772 086.3970 109.1167 0018081 272.3138 146.8007 14.68425762244851
0 IRIDIUM 33 DEB
1 34772U 97051LR  13295.76956198  .00040272  00000-0  68956-2 0  8132
2 34772 086.3965 108.5439 0018016 267.4511 152.6247 14.68501820245041
